NORAD_CAT_ID,OBJECT_NAME,OBJECT_TYPE,EPOCH,MEAN_MOTION,ECCENTRICITY,INCLINATION,RA_OF_ASC_NODE,ARG_OF_PERICENTER,MEAN_ANOMALY,BSTAR,MEAN_MOTION_DOT,MEAN_MOTION_DDOT,TLE_LINE0,TLE_LINE1,TLE_LINE2,SEMIMAJOR_AXIS,PERIOD,APOGEE,PERIGEE,DECAYED
50809.0,STARLINK-3232,PAYLOAD,2023-07-18 10:15:40,15.08844847,0.0001181,53.2159,172.3502,82.4749,277.6377,9.8396e-05,1.279e-05,0.0,0 STARLINK-3232,1 50809U 22001G   23199.42755336  .00001279  00000-0  98396-4 0  9994,2 50809  53.2159 172.3502 0001181  82.4749 277.6377 15.08844847 86107,6917.866,95.437,540.548,538.914,0.0
50809.0,STARLINK-3232,PAYLOAD,2023-07-19 02:09:32,15.08832373,0.0001369,53.2149,169.3763,110.8976,249.2163,2.0906e-05,4.5e-07,0.0,0 STARLINK-3232,1 50809U 22001G   23200.08996407  .00000045  00000-0  20906-4 0  9997,2 50809  53.2149 169.3763 0001369 110.8976 249.2163 15.08832373 86207,6917.904,95.438,540.716,538.822,0.0
50809.0,STARLINK-3232,PAYLOAD,2023-07-19 10:06:28,15.08838842,0.0001247,53.2167,167.8897,96.9485,263.1649,6.9132e-05,8.13e-06,0.0,0 STARLINK-3232,1 50809U 22001G   23200.42116011  .00000813  00000-0  69132-4 0  9997,2 50809  53.2167 167.8897 0001247  96.9485 263.1649 15.08838842 86258,6917.884,95.438,540.612,538.886,0.0
50809.0,STARLINK-3232,PAYLOAD,2023-07-21 01:51:07,15.08838088,0.0001293,53.2172,160.4551,90.2727,269.8413,4.109e-05,3.66e-06,0.0,0 STARLINK-3232,1 50809U 22001G   23202.07716685  .00000366  00000-0  41090-4 0  9999,2 50809  53.2172 160.4551 0001293  90.2727 269.8413 15.08838088 86509,6917.886,95.438,540.646,538.857,0.0
50809.0,STARLINK-3232,PAYLOAD,2023-07-24 04:34:14,15.0883471,0.000136,53.2165,146.4761,125.2315,234.8804,-5.8925e-05,-1.225e-05,0.0,0 STARLINK-3232,1 50809U 22001G   23205.19044970 -.00001225  00000-0 -58925-4 0  9998,2 50809  53.2165 146.4761 0001360 125.2315 234.8804 15.08834710 85698,6917.897,95.438,540.702,538.821,0.0
50809.0,STARLINK-3232,PAYLOAD,2023-07-25 06:00:24,15.08841165,0.0001003,53.2175,141.7205,140.0802,220.0264,-3.5827e-05,-8.58e-06,0.0,0 STARLINK-3232,1 50809U 22001G   23206.25028551 -.00000858  00000-0 -35827-4 0  9990,2 50809  53.2175 141.7205 0001003 140.0802 220.0264 15.08841165 85857,6917.877,95.437,540.436,539.048,0.0
50809.0,STARLINK-3232,PAYLOAD,2023-07-26 04:15:49,15.08838461,0.0001434,53.2178,137.5582,82.2337,277.8818,1.9261e-05,1.9e-07,0.0,0 STARLINK-3232,1 50809U 22001G   23207.17765209  .00000019  00000-0  19261-4 0  9991,2 50809  53.2178 137.5582 0001434  82.2337 277.8818 15.08838461 85994,6917.885,95.438,540.742,538.758,0.0
50809.0,STARLINK-3232,PAYLOAD,2023-07-27 04:06:35,15.08839903,0.0001406,53.2172,133.0984,82.9453,277.1699,0.00012052,1.631e-05,0.0,0 STARLINK-3232,1 50809U 22001G   23208.17124807  .00001631  00000-0  12052-3 0  9996,2 50809  53.2172 133.0984 0001406  82.9453 277.1699 15.08839903 87422,6917.881,95.438,540.718,538.773,0.0
50809.0,STARLINK-3232,PAYLOAD,2023-07-27 18:25:05,15.08793643,6.97e-05,53.2167,130.4249,114.9528,245.1537,0.00052502,8.067e-05,0.0,0 STARLINK-3232,1 50809U 22001G   23208.76742850  .00008067  00000-0  52502-3 0  9999,2 50809  53.2167 130.4249 0000697 114.9528 245.1537 15.08793643 87517,6918.022,95.44,540.369,539.405,0.0
50809.0,STARLINK-3232,PAYLOAD,2023-07-28 00:46:37,15.08816428,0.0001142,53.2173,129.2317,92.6426,267.4697,0.00012002,1.622e-05,0.0,0 STARLINK-3232,1 50809U 22001G   23209.03238325  .00001622  00000-0  12002-3 0  9998,2 50809  53.2173 129.2317 0001142  92.6426 267.4697 15.08816428 87556,6917.952,95.439,540.607,539.027,0.0
50809.0,STARLINK-3232,PAYLOAD,2023-07-28 03:57:23,15.08832828,0.0001084,53.2162,128.6356,119.8914,240.2186,-4.9219e-05,-1.071e-05,0.0,0 STARLINK-3232,1 50809U 22001G   23209.16485816 -.00001071  00000-0 -49219-4 0  9992,2 50809  53.2162 128.6356 0001084 119.8914 240.2186 15.08832828 87575,6917.902,95.438,540.517,539.017,0.0
50809.0,STARLINK-3232,PAYLOAD,2023-07-29 00:37:23,15.08840073,0.0001255,53.2163,124.7724,85.097,275.0165,0.00011367,1.522e-05,0.0,0 STARLINK-3232,1 50809U 22001G   23210.02597022  .00001522  00000-0  11367-3 0  9993,2 50809  53.2163 124.7724 0001255  85.0970 275.0165 15.08840073 87707,6917.88,95.438,540.613,538.877,0.0
50809.0,STARLINK-3232,PAYLOAD,2023-07-29 03:48:09,15.08854108,0.000104,53.2165,124.1764,87.1739,272.9372,1.6262e-05,-2.9e-07,0.0,0 STARLINK-3232,1 50809U 22001G   23210.15844554 -.00000029  00000-0  16262-4 0  9994,2 50809  53.2165 124.1764 0001040  87.1739 272.9372 15.08854108 87727,6917.837,95.437,540.422,538.983,0.0
50809.0,STARLINK-3232,PAYLOAD,2023-07-29 11:45:05,15.08840405,0.000104,53.2168,122.6896,93.4853,266.6258,0.0001301,1.783e-05,0.0,0 STARLINK-3232,1 50809U 22001G   23210.48964882  .00001783  00000-0  13010-3 0  9991,2 50809  53.2168 122.6896 0001040  93.4853 266.6258 15.08840405 87779,6917.879,95.438,540.464,539.025,0.0
50809.0,STARLINK-3232,PAYLOAD,2023-07-30 00:28:11,15.08836989,0.0001208,53.2168,120.3104,91.246,268.8671,8.9046e-05,1.129e-05,0.0,0 STARLINK-3232,1 50809U 22001G   23211.01957368  .00001129  00000-0  89046-4 0  9999,2 50809  53.2168 120.3104 0001208  91.2460 268.8671 15.08836989 87856,6917.89,95.438,540.59,538.919,0.0
50809.0,STARLINK-3232,PAYLOAD,2023-07-31 03:29:44,15.08842902,0.0001292,53.217,115.2558,84.8517,275.2623,-4.2749e-05,-9.68e-06,0.0,0 STARLINK-3232,1 50809U 22001G   23212.14565598 -.00000968  00000-0 -42749-4 0  9995,2 50809  53.2170 115.2558 0001292  84.8517 275.2623 15.08842902 88020,6917.872,95.437,540.63,538.843,0.0
50809.0,STARLINK-3232,PAYLOAD,2023-08-01 17:39:00,15.08836244,0.0001375,53.2168,108.1189,80.5114,279.6033,1.8313e-05,4e-08,0.0,0 STARLINK-3232,1 50809U 22001G   23213.73542133  .00000004  00000-0  18313-4 0  9990,2 50809  53.2168 108.1189 0001375  80.5114 279.6033 15.08836244 88267,6917.892,95.438,540.708,538.806,0.0
50809.0,STARLINK-3232,PAYLOAD,2023-08-03 01:26:42,15.08848687,0.0001104,53.2156,102.1756,88.2449,271.8669,5.2831e-05,5.53e-06,0.0,0 STARLINK-3232,1 50809U 22001G   23215.06021420  .00000553  00000-0  52831-4 0  9991,2 50809  53.2156 102.1756 0001104  88.2449 271.8669 15.08848687 88469,6917.854,95.437,540.483,538.955,0.0
50809.0,STARLINK-3232,PAYLOAD,2023-08-04 01:17:30,15.08838074,0.0001178,53.2165,97.7109,94.659,265.4537,6.6315e-07,-2.77e-06,0.0,0 STARLINK-3232,1 50809U 22001G   23216.05382479 -.00000277  00000-0  66315-6 0  9993,2 50809  53.2165  97.7109 0001178  94.6590 265.4537 15.08838074 88618,6917.886,95.438,540.566,538.936,0.0
50809.0,STARLINK-3232,PAYLOAD,2023-08-05 01:08:17,15.08844838,0.000125,53.2175,93.2496,90.9898,269.1238,8.1853e-06,-1.58e-06,0.0,0 STARLINK-3232,1 50809U 22001G   23217.04742249 -.00000158  00000-0  81853-5 0  9999,2 50809  53.2175  93.2496 0001250  90.9898 269.1238 15.08844838 88760,6917.866,95.437,540.595,538.866,0.0
50809.0,STARLINK-3232,PAYLOAD,2023-08-06 00:59:03,15.08855402,0.000118,53.2167,88.7886,103.8808,256.2315,0.00010363,1.362e-05,0.0,0 STARLINK-3232,1 50809U 22001G   23218.04101009  .00001362  00000-0  10363-3 0  9996,2 50809  53.2167  88.7886 0001180 103.8808 256.2315 15.08855402 88919,6917.833,95.437,540.515,538.882,0.0
50809.0,STARLINK-3232,PAYLOAD,2023-08-06 08:56:01,15.08827535,0.0001561,53.2166,87.3029,90.5186,269.5985,-3.5676e-05,-8.56e-06,0.0,0 STARLINK-3232,1 50809U 22001G   23218.37223415 -.00000856  00000-0 -35676-4 0  9992,2 50809  53.2166  87.3029 0001561  90.5186 269.5985 15.08827535 88967,6917.918,95.438,540.863,538.704,0.0
50809.0,STARLINK-3232,PAYLOAD,2023-08-07 18:19:06,15.08846555,0.0001082,53.2175,81.0587,86.8727,273.2389,-6.9778e-05,-1.398e-05,0.0,0 STARLINK-3232,1 50809U 22001G   23219.76327059 -.00001398  00000-0 -69778-4 0  9997,2 50809  53.2175  81.0587 0001082  86.8727 273.2389 15.08846555 89171,6917.86,95.437,540.474,538.977,0.0
50809.0,STARLINK-3232,PAYLOAD,2023-08-08 00:40:38,15.0885313,0.0001071,53.2174,79.8697,79.8422,280.2691,-1.0504e-05,-4.55e-06,0.0,0 STARLINK-3232,1 50809U 22001G   23220.02822414 -.00000455  00000-0 -10504-4 0  9999,2 50809  53.2174  79.8697 0001071  79.8422 280.2691 15.08853130 89215,6917.84,95.437,540.446,538.964,0.0
50809.0,STARLINK-3232,PAYLOAD,2023-08-09 00:31:25,15.08843986,0.0001087,53.2172,75.4084,69.8278,290.2831,0.00024701,3.646e-05,0.0,0 STARLINK-3232,1 50809U 22001G   23221.02182411  .00003646  00000-0  24701-3 0  9992,2 50809  53.2172  75.4084 0001087  69.8278 290.2831 15.08843986 89361,6917.868,95.437,540.485,538.981,0.0
50809.0,STARLINK-3232,PAYLOAD,2023-08-09 06:52:58,15.08840564,9.14e-05,53.2173,74.2203,58.9025,301.2057,0.00017715,2.533e-05,0.0,0 STARLINK-3232,1 50809U 22001G   23221.28678845  .00002533  00000-0  17715-3 0  9992,2 50809  53.2173  74.2203 0000914  58.9025 301.2057 15.08840564 89406,6917.879,95.438,540.376,539.111,0.0
50809.0,STARLINK-3232,PAYLOAD,2023-08-09 13:14:31,15.08834379,0.0001339,53.2168,73.0294,75.7195,284.3946,3.6259e-05,2.89e-06,0.0,0 STARLINK-3232,1 50809U 22001G   23221.55175668  .00000289  00000-0  36259-4 0  9998,2 50809  53.2168  73.0294 0001339  75.7195 284.3946 15.08834379 89443,6917.898,95.438,540.689,538.836,0.0
50809.0,STARLINK-3232,PAYLOAD,2023-08-10 00:22:13,15.08846044,0.0001001,53.217,70.9492,79.9294,280.1811,-1.3384e-06,-3.09e-06,0.0,0 STARLINK-3232,1 50809U 22001G   23222.01542932 -.00000309  00000-0 -13384-5 0  9992,2 50809  53.2170  70.9492 0001001  79.9294 280.1811 15.08846044 89519,6917.862,95.437,540.419,539.034,0.0
50809.0,STARLINK-3232,PAYLOAD,2023-08-10 13:05:18,15.08837119,0.0001104,53.2167,68.5697,81.426,278.6857,-6.192e-05,-1.273e-05,0.0,0 STARLINK-3232,1 50809U 22001G   23222.54535609 -.00001273  00000-0 -61920-4 0  9992,2 50809  53.2167  68.5697 0001104  81.4260 278.6857 15.08837119 89593,6917.889,95.438,540.518,538.99,0.0
50809.0,STARLINK-3232,PAYLOAD,2023-08-11 00:13:00,15.08837408,0.0001562,53.2146,66.4883,89.148,270.9691,0.00011761,1.584e-05,0.0,0 STARLINK-3232,1 50809U 22001G   23223.00903004  .00001584  00000-0  11761-3 0  9992,2 50809  53.2146  66.4883 0001562  89.1480 270.9691 15.08837408 89661,6917.888,95.438,540.834,538.673,0.0
